STARLINK-30774          
1 58625U 23203H   26068.37429725 -.00000127  00000+0  49106-5 0  9992
2 58625  43.0040  68.8290 0001245 274.6375  85.4334 15.27574396123516
FLOCK 4G-36             
1 62675U 25009BU  26068.70726311  .00013573  00000+0  51122-3 0  9993
2 62675  97.4053 151.0513 0003474 324.2456  35.8550 15.27209548 63701
